*******************************************************************************
JPL/HORIZONS              3529 Dowling (1981 EQ19)         2023-Sep-04 11:24:06
Rec #:    3529 (+COV) Soln.date: 2023-Aug-23_11:13:06   # obs: 1791 (1953-2023)
 
IAU76/J2000 helio. ecliptic osc. elements (au, days, deg., period=Julian yrs):
 
  EPOCH=  2457572.5 ! 2016-Jul-03.00 (TDB)         Residual RMS= .28209
   EC= .1846750219122548   QR= 1.941755149058933   TP= 2457555.7988957609
   OM= 194.0010762419668   W=  184.4649143331207   IN= 2.764303007076883
   A= 2.381572012687635    MA= 4.478717642703856   ADIST= 2.821388876316337
   PER= 3.67539            N= .268168953           ANGMOM= .026090253
   DAN= 2.81945            DDN= 1.94267            L= 18.4608161
   B= -.2151142            MOID= .94206297         TP= 2016-Jun-16.2988957609
 
Asteroid physical parameters (km, seconds, rotational period in hours):
   GM= n.a.                RAD= 3.044              ROTPER= n.a.
   H= 14.99                G= .150                 B-V= n.a.
                           ALBEDO= .120            STYP= n.a.

ASTEROID comments: 
1: soln ref.= JPL#39, OCC=0
2: source=ORB
*******************************************************************************


*******************************************************************************
Ephemeris / API_USER Mon Sep  4 11:24:06 2023 Pasadena, USA      / Horizons
*******************************************************************************
Target body name: 3529 Dowling (1981 EQ19)        {source: JPL#39}
Center body name: Solar System Barycenter (0)     {source: DE441}
Center-site name: BODY CENTER
*******************************************************************************
Start time      : A.D. 2023-Aug-12 00:00:00.0000 TDB
Stop  time      : A.D. 2023-Aug-13 00:00:00.0000 TDB
Step-size       : 2880 minutes
*******************************************************************************
Center geodetic : 0.0, 0.0, 0.0                   {E-lon(deg),Lat(deg),Alt(km)}
Center cylindric: 0.0, 0.0, 0.0                   {E-lon(deg),Dxy(km),Dz(km)}
Center radii    : (undefined)
Small perturbers: Yes                             {source: SB441-N16}
Output units    : KM-S
Calendar mode   : Mixed Julian/Gregorian
Output type     : GEOMETRIC cartesian states
Output format   : 2 (position and velocity)
Reference frame : Ecliptic of J2000.0
*******************************************************************************
Initial IAU76/J2000 heliocentric ecliptic osculating elements (au, days, deg.):
  EPOCH=  2457572.5 ! 2016-Jul-03.00 (TDB)         Residual RMS= .28209        
   EC= .1846750219122548   QR= 1.941755149058933   TP= 2457555.7988957609      
   OM= 194.0010762419668   W=  184.4649143331207   IN= 2.764303007076883       
  Equivalent ICRF heliocentric cartesian coordinates (au, au/d):
   X= 1.760571651446857E+00  Y= 7.628063903235318E-01  Z= 3.110779861272933E-01
  VX=-5.467864185429335E-03 VY= 1.148729371296644E-02 VZ= 4.285515911862464E-03
Asteroid physical parameters (km, seconds, rotational period in hours):        
   GM= n.a.                RAD= 3.044              ROTPER= n.a.                
   H= 14.99                G= .150                 B-V= n.a.                   
                           ALBEDO= .120            STYP= n.a.                  
*******************************************************************************
JDTDB
   X     Y     Z
   VX    VY    VZ
*******************************************************************************
$$SOE
2460168.500000000 = A.D. 2023-Aug-12 00:00:00.0000 TDB 
 X = 2.905209289277065E+08 Y =-5.281376254380932E+07 Z = 5.887948015178423E+06
 VX= 2.331894423425810E+00 VY= 2.270266507124382E+01 VZ=-1.037383809443426E+00
$$EOE
*******************************************************************************
 
TIME

  Barycentric Dynamical Time ("TDB" or T_eph) output was requested. This
continuous coordinate time is equivalent to the relativistic proper time
of a clock at rest in a reference frame co-moving with the solar system
barycenter but outside the system's gravity well. It is the independent
variable in the solar system relativistic equations of motion.

  TDB runs at a uniform rate of one SI second per second and is independent
of irregularities in Earth's rotation.
 
CALENDAR SYSTEM

  Mixed calendar mode was active such that calendar dates after AD 1582-Oct-15
(if any) are in the modern Gregorian system. Dates prior to 1582-Oct-5 (if any)
are in the Julian calendar system, which is automatically extended for dates
prior to its adoption on 45-Jan-1 BC.  The Julian calendar is useful for
matching historical dates. The Gregorian calendar more accurately corresponds
to the Earth's orbital motion and seasons. A "Gregorian-only" calendar mode is
available if such physical events are the primary interest.

REFERENCE FRAME AND COORDINATES

  Ecliptic at the standard reference epoch

    Reference epoch: J2000.0
    X-Y plane: adopted Earth orbital plane at the reference epoch
               Note: IAU76 obliquity of 84381.448 arcseconds wrt ICRF X-Y plane
    X-axis   : ICRF
    Z-axis   : perpendicular to the X-Y plane in the directional (+ or -) sense
               of Earth's north pole at the reference epoch.

  Symbol meaning:

    JDTDB    Julian Day Number, Barycentric Dynamical Time
      X      X-component of position vector (km)
      Y      Y-component of position vector (km)
      Z      Z-component of position vector (km)
      VX     X-component of velocity vector (km/sec)                           
      VY     Y-component of velocity vector (km/sec)                           
      VZ     Z-component of velocity vector (km/sec)                           

ABERRATIONS AND CORRECTIONS

 Geometric state vectors have NO corrections or aberrations applied.

Computations by ...

    Solar System Dynamics Group, Horizons On-Line Ephemeris System
    4800 Oak Grove Drive, Jet Propulsion Laboratory
    Pasadena, CA  91109   USA

    General site: https://ssd.jpl.nasa.gov/
    Mailing list: https://ssd.jpl.nasa.gov/email_list.html
    System news : https://ssd.jpl.nasa.gov/horizons/news.html
    User Guide  : https://ssd.jpl.nasa.gov/horizons/manual.html
    Connect     : browser        https://ssd.jpl.nasa.gov/horizons/app.html#/x
                  API            https://ssd-api.jpl.nasa.gov/doc/horizons.html
                  command-line   telnet ssd.jpl.nasa.gov 6775
                  e-mail/batch   https://ssd.jpl.nasa.gov/ftp/ssd/hrzn_batch.txt
                  scripts        https://ssd.jpl.nasa.gov/ftp/ssd/SCRIPTS
    Author      : Jon.D.Giorgini@jpl.nasa.gov
*******************************************************************************
